NORAD_CAT_ID,OBJECT_NAME,OBJECT_TYPE,EPOCH,MEAN_MOTION,ECCENTRICITY,INCLINATION,RA_OF_ASC_NODE,ARG_OF_PERICENTER,MEAN_ANOMALY,BSTAR,MEAN_MOTION_DOT,MEAN_MOTION_DDOT,TLE_LINE0,TLE_LINE1,TLE_LINE2,SEMIMAJOR_AXIS,PERIOD,APOGEE,PERIGEE,DECAYED
51114.0,STARLINK-3375,PAYLOAD,2022-05-26 06:00:00,15.08864493,0.0001858,53.2214,19.6152,43.9816,139.5639,-0.0032046,-0.00050963,0.0,0 STARLINK-3375,1 51114U 22005L   22146.25001157 -.00050963  00000-0 -32046-2 0  9999,2 51114  53.2214  19.6152 0001858  43.9816 139.5639 15.08864493 21140,6917.806,95.436,540.956,538.385,0.0
51114.0,STARLINK-3375,PAYLOAD,2022-05-26 08:22:11,15.088356400000002,0.0001916,53.2232,19.1714,47.5472,312.5682,8.1778e-05,1.013e-05,0.0,0 STARLINK-3375,1 51114U 22005L   22146.34874023  .00001013  00000-0  81778-4 0  9997,2 51114  53.2232  19.1714 0001916  47.5472 312.5682 15.08835640 20043,6917.894,95.438,541.0840000000002,538.433,0.0
51114.0,STARLINK-3375,PAYLOAD,2022-05-26 22:00:00,15.08834239,0.0001802,53.2213,16.6235,43.4545,163.2758,-0.0019958,-0.00031906,0.0,0 STARLINK-3375,1 51114U 22005L   22146.91667824 -.00031906  00000-0 -19958-2 0  9994,2 51114  53.2213  16.6235 0001802  43.4545 163.2758 15.08834239 21243,6917.898,95.438,541.01,538.516,0.0
51114.0,STARLINK-3375,PAYLOAD,2022-05-27 14:00:01,15.08817183,0.0001631999999999,53.221,13.6295,48.4608,181.4179,0.0024812,0.00039397,0.0,0 STARLINK-3375,1 51114U 22005L   22147.58334491  .00039397  00000-0  24812-2 0  9994,2 51114  53.2210  13.6295 0001632  48.4608 181.4179 15.08817183 21348,6917.95,95.439,540.944,538.686,0.0
51114.0,STARLINK-3375,PAYLOAD,2022-05-27 22:00:01,15.08836418,0.0001831,53.2209,12.1351,44.0415,197.4869,0.00038279,5.809e-05,0.0,0 STARLINK-3375,1 51114U 22005L   22147.91668981  .00005809  00000-0  38279-3 0  9999,2 51114  53.2209  12.1351 0001831  44.0415 197.4869 15.08836418  1301,6917.891,95.438,541.023,538.49,0.0
51114.0,STARLINK-3375,PAYLOAD,2022-05-28 06:00:02,15.08875042,0.0001814,53.2205,10.6382,44.0209,209.0983,-0.0041938,-0.00066481,0.0,0 STARLINK-3375,1 51114U 22005L   22148.25002315 -.00066481  00000-0 -41938-2 0  9990,2 51114  53.2205  10.6382 0001814  44.0209 209.0983 15.08875042 21446,6917.773,95.435,540.893,538.383,0.0
51114.0,STARLINK-3375,PAYLOAD,2022-05-28 14:00:01,15.08825702,0.0001781,53.2206,9.1408,51.5962,213.0712,0.0025494,0.00040503,0.0,0 STARLINK-3375,1 51114U 22005L   22148.58334491  .00040503  00000-0  25494-2 0  9993,2 51114  53.2206   9.1408 0001781  51.5962 213.0712 15.08825702  1307,6917.924,95.438,541.021,538.557,0.0
51114.0,STARLINK-3375,PAYLOAD,2022-05-28 20:46:50,15.08841388,0.0001909,53.2226,7.872000000000001,46.1152,313.9998,0.00017719,2.533e-05,0.0,0 STARLINK-3375,1 51114U 22005L   22148.86585703  .00002533  00000-0  17719-3 0  9991,2 51114  53.2226   7.8720 0001909  46.1152 313.9998 15.08841388 21535,6917.876,95.437,541.062,538.4209999999998,0.0
51114.0,STARLINK-3375,PAYLOAD,2022-05-29 14:00:01,15.08834386,0.0001852,53.2207,4.6519,51.2832,248.1825,-0.00069038,-0.00011257,0.0,0 STARLINK-3375,1 51114U 22005L   22149.58334491 -.00011257  00000-0 -69038-3 0  9993,2 51114  53.2207   4.6519 0001852  51.2832 248.1825 15.08834386 21644,6917.898,95.438,541.044,538.481,0.0
51114.0,STARLINK-3375,PAYLOAD,2022-05-29 20:37:38,15.08835735,0.0002062,53.2226,3.4146,45.0799,315.036,6.6146e-06,-1.83e-06,0.0,0 STARLINK-3375,1 51114U 22005L   22149.85946910 -.00000183  00000-0  66146-5 0  9992,2 51114  53.2226   3.4146 0002062  45.0799 315.0360 15.08835735 20573,6917.893,95.438,541.185,538.332,0.0
51114.0,STARLINK-3375,PAYLOAD,2022-05-30 12:31:29,15.08841507,0.0001919,53.2227,0.4408,41.3034,318.8103,-4.0604e-05,-9.34e-06,0.0,0 STARLINK-3375,1 51114U 22005L   22150.52186686 -.00000934  00000-0 -40604-4 0  9999,2 51114  53.2227   0.4408 0001919  41.3034 318.8103 15.08841507 20674,6917.876,95.437,541.068,538.413,0.0
51114.0,STARLINK-3375,PAYLOAD,2022-05-30 14:00:01,15.08854258,0.0001873,53.2211,0.1631,51.9887,282.2314,-0.00072347,-0.00011788,0.0,0 STARLINK-3375,1 51114U 22005L   22150.58334491 -.00011788  00000-0 -72347-3 0  9991,2 51114  53.2211   0.1631 0001873  51.9887 282.2314 15.08854258 21793,6917.837,95.437,540.998,538.406,0.0
51114.0,STARLINK-3375,PAYLOAD,2022-05-30 22:00:00,15.08820725,0.0002036,53.221,358.6686,46.0495,299.7822,0.0008921,0.00013931,0.0,0 STARLINK-3375,1 51114U 22005L   22150.91667824  .00013931  00000-0  89210-3 0  9994,2 51114  53.2210 358.6686 0002036  46.0495 299.7822 15.08820725  1309,6917.939,95.439,541.2130000000002,538.396,0.0
51114.0,STARLINK-3375,PAYLOAD,2022-05-31 06:00:02,15.08849251,0.0001942,53.221,357.1712,46.5972,310.8717,-0.0017644,-0.00028266,0.0,0 STARLINK-3375,1 51114U 22005L   22151.25002315 -.00028266  00000-0 -17644-2 0  9990,2 51114  53.2210 357.1712 0001942  46.5972 310.8717 15.08849251  1306,6917.852,95.437,541.061,538.374,0.0
51114.0,STARLINK-3375,PAYLOAD,2022-05-31 22:00:00,15.08845236,0.0002037,53.2213,354.1797,46.3785,334.2275,0.00045469,6.957e-05,0.0,0 STARLINK-3375,1 51114U 22005L   22151.91667824  .00006957  00000-0  45469-3 0  9993,2 51114  53.2213 354.1797 0002037  46.3785 334.2275 15.08845236 21990,6917.864000000001,95.437,541.139,538.32,0.0
51114.0,STARLINK-3375,PAYLOAD,2022-06-01 20:00:01,15.08843335,0.0001929,53.2213,350.0647,46.076,276.4274,-0.00033602,-5.633e-05,0.0,0 STARLINK-3375,1 51114U 22005L   22152.83334491 -.00005633  00000-0 -33602-3 0  9994,2 51114  53.2213 350.0647 0001929  46.0760 276.4274 15.08843335 22139,6917.87,95.437,541.07,538.401,0.0
51114.0,STARLINK-3375,PAYLOAD,2022-06-02 20:00:46,15.08831772,0.0001821,53.2222,345.5722,48.625,311.4899,-5.8832e-05,-1.224e-05,0.0,0 STARLINK-3375,1 51114U 22005L   22153.83387505 -.00001224  00000-0 -58832-4 0  9994,2 51114  53.2222 345.5722 0001821  48.6250 311.4899 15.08831772 22286,6917.906,95.438,541.03,538.511,0.0
51114.0,STARLINK-3375,PAYLOAD,2022-06-03 11:54:38,15.08835228,0.0001786999999999,53.2222,342.5987,46.7399,313.3742,-7.3674e-06,-4.05e-06,0.0,0 STARLINK-3375,1 51114U 22005L   22154.49627320 -.00000405  00000-0 -73674-5 0  9991,2 51114  53.2222 342.5987 0001787  46.7399 313.3742 15.08835228 21276,6917.895,95.438,540.996,538.524,0.0
51114.0,STARLINK-3375,PAYLOAD,2022-06-03 16:40:47,15.08838765,0.0001806,53.2223,341.7068,47.295,312.8194,-1.9694e-06,-3.19e-06,0.0,0 STARLINK-3375,1 51114U 22005L   22154.69499139 -.00000319  00000-0 -19694-5 0  9994,2 51114  53.2223 341.7068 0001806  47.2950 312.8194 15.08838765 22410,6917.884,95.438,540.999,538.5,0.0
51114.0,STARLINK-3375,PAYLOAD,2022-06-04 11:45:24,15.08840247,0.0001774999999999,53.2221,338.1386,47.2388,312.8753,8.1173e-05,1.004e-05,0.0,0 STARLINK-3375,1 51114U 22005L   22155.48986707  .00001004  00000-0  81173-4 0  9994,2 51114  53.2221 338.1386 0001775  47.2388 312.8753 15.08840247 21420,6917.88,95.438,540.9730000000002,538.5169999999998,0.0
51114.0,STARLINK-3375,PAYLOAD,2022-06-05 22:00:00,15.08820238,0.0001884,53.2207,331.7365,43.6523,150.8318,0.0031732,0.00050549,0.0,0 STARLINK-3375,1 51114U 22005L   22156.91667824  .00050549  00000-0  31732-2 0  9991,2 51114  53.2207 331.7365 0001884  43.6523 150.8318 15.08820238 22754,6917.941,95.439,541.109,538.502,0.0
51114.0,STARLINK-3375,PAYLOAD,2022-06-06 14:00:01,15.08843259,0.0001724,53.2209,328.7427,47.8045,169.865,-0.0010206,-0.00016496,0.0,0 STARLINK-3375,1 51114U 22005L   22157.58334491 -.00016496  00000-0 -10206-2 0  9994,2 51114  53.2209 328.7427 0001724  47.8045 169.8650 15.08843259 22857,6917.87,95.437,540.928,538.543,0.0
51114.0,STARLINK-3375,PAYLOAD,2022-06-06 20:59:18,15.08834505,0.0001827,53.2224,327.4352,48.5814,311.5335,4.5084e-05,4.29e-06,0.0,0 STARLINK-3375,1 51114U 22005L   22157.87451473  .00000429  00000-0  45084-4 0  9997,2 51114  53.2224 327.4352 0001827  48.5814 311.5335 15.08834505 21784,6917.897,95.438,541.026,538.498,0.0
51114.0,STARLINK-3375,PAYLOAD,2022-06-07 04:56:13,15.08836445,0.0001675,53.2229,325.9481,46.3504,313.7627,3.3619e-05,2.47e-06,0.0,0 STARLINK-3375,1 51114U 22005L   22158.20571401  .00000247  00000-0  33619-4 0  9998,2 51114  53.2229 325.9481 0001675  46.3504 313.7627 15.08836445 22940,6917.891,95.438,540.915,538.5980000000002,0.0
51114.0,STARLINK-3375,PAYLOAD,2022-06-07 11:17:46,15.08839838,0.0001720999999999,53.2226,324.7589,45.1655,314.9477,4.8634e-05,4.86e-06,0.0,0 STARLINK-3375,1 51114U 22005L   22158.47067170  .00000486  00000-0  48634-4 0  9998,2 51114  53.2226 324.7589 0001721  45.1655 314.9477 15.08839838 21875,6917.880999999999,95.438,540.936,538.555,0.0
51114.0,STARLINK-3375,PAYLOAD,2022-06-07 17:39:18,15.08846089,0.0001797,53.2223,323.5695,48.5658,311.5488,7.7722e-05,9.49e-06,0.0,0 STARLINK-3375,1 51114U 22005L   22158.73562625  .00000949  00000-0  77722-4 0  9996,2 51114  53.2223 323.5695 0001797  48.5658 311.5488 15.08846089 23020,6917.861999999999,95.437,540.97,538.484,0.0
51114.0,STARLINK-3375,PAYLOAD,2022-06-07 20:50:04,15.08847602,0.0001813,53.2223,322.9749,48.1532,311.9615,6.239800000000001e-05,7.05e-06,0.0,0 STARLINK-3375,1 51114U 22005L   22158.86810516  .00000705  00000-0  62398-4 0  9998,2 51114  53.2223 322.9749 0001813  48.1532 311.9615 15.08847602 21935,6917.857,95.437,540.976,538.4680000000002,0.0
51114.0,STARLINK-3375,PAYLOAD,2022-06-08 11:08:32,15.0884547,0.0001891,53.2198,320.2985,50.9242,309.1918,-3.2389e-05,-8.04e-06,0.0,0 STARLINK-3375,1 51114U 22005L   22159.46426810 -.00000804  00000-0 -32389-4 0  9994,2 51114  53.2198 320.2985 0001891  50.9242 309.1918 15.08845470 22021,6917.864000000001,95.437,541.0369999999998,538.4209999999998,0.0
51114.0,STARLINK-3375,PAYLOAD,2022-06-08 19:05:28,15.08839416,0.00018,53.2209,318.8121,47.0804,313.0339,5.7817e-05,6.32e-06,0.0,0 STARLINK-3375,1 51114U 22005L   22159.79546745  .00000632  00000-0  57817-4 0  9990,2 51114  53.2209 318.8121 0001800  47.0804 313.0339 15.08839416 22079,6917.882,95.438,540.992,538.502,0.0
